GLOBALSTAR M001         
1 25162U 98008A   25075.95177897 -.00000050  00000+0  35696-3 0  9990
2 25162  52.0017 241.6834 0002251  74.1527  93.6804 12.38210009232280
GLOBALSTAR M004         
1 25163U 98008B   25075.97579800 -.00000041  00000+0  34775-3 0  9990
2 25163  52.0024 335.4673 0003736  83.9273 289.5563 12.63390361250036
GLOBALSTAR M002         
1 25164U 98008C   25075.82568123 -.00000063  00000+0  26433-3 0  9997
2 25164  51.9994 111.7844 0001038 339.0581  21.0196 11.61508017173330
GLOBALSTAR M003         
1 25165U 98008D   25075.91770286 -.00000064  00000+0  27282-3 0  9997
2 25165  52.0000  64.0633 0008272 106.9733 288.6035 12.12074813222038
GLOBALSTAR M014         
1 25306U 98023A   25075.82982187 -.00000083  00000+0 -11223-3 0  9996
2 25306  51.9862  36.9383 0000843 171.5929 200.0792 11.65478706180408
GLOBALSTAR M006         
1 25307U 98023B   25075.80875719 -.00000065  00000+0  21159-3 0  9995
2 25307  51.9925  86.0125 0003191 296.2272 235.0941 11.58172892206125
GLOBALSTAR M015         
1 25308U 98023C   25075.66942747 -.00000080  00000+0 -15258-3 0  9997
2 25308  51.9809 180.5925 0011993 269.4219 232.8323 11.48858842183440
GLOBALSTAR M008         
1 25309U 98023D   25075.83187493 -.00000078  00000+0  13887-3 0  9998
2 25309  51.9953 105.8154 0002347 346.0291 186.0539 12.36064411226424
